{
  "norad_id": 62674,
  "name": "TRANSPORTER-12 OBJECT BT",
  "history": [
    {
      "epoch": "2026-03-28T18:28:08.996448Z",
      "apogee_km": 483.4271792045374,
      "perigee_km": 478.02459008755886,
      "latitude_deg": -5.625934361678822e-05,
      "longitude_deg": 67.3266845167433,
      "height_km": 485.81992903996735,
      "semi_major_axis_km": 6858.862884646048,
      "eccentricity": 0.00039384,
      "inclination_deg": 97.408,
      "raan_deg": 170.5494,
      "arg_perigee_deg": 222.5962,
      "mean_anomaly_deg": 137.4972,
      "mean_motion_rev_day": 15.28356191
    },
    {
      "epoch": "2026-03-29T03:53:49.455744Z",
      "apogee_km": 483.41094343219265,
      "perigee_km": 477.95818029051225,
      "latitude_deg": 4.123954353056999e-05,
      "longitude_deg": -74.08859881222851,
      "height_km": 485.84441755503906,
      "semi_major_axis_km": 6858.821561861352,
      "eccentricity": 0.0003975,
      "inclination_deg": 97.408,
      "raan_deg": 170.9399,
      "arg_perigee_deg": 221.1038,
      "mean_anomaly_deg": 138.9903,
      "mean_motion_rev_day": 15.28370003
    },
    {
      "epoch": "2026-03-29T22:45:09.416160Z",
      "apogee_km": 483.3469306693887,
      "perigee_km": 477.8432097069863,
      "latitude_deg": 2.1763238840198332e-05,
      "longitude_deg": 3.0854660061513166,
      "height_km": 485.8724314810511,
      "semi_major_axis_km": 6858.732070188187,
      "eccentricity": 0.00040122,
      "inclination_deg": 97.4082,
      "raan_deg": 171.7215,
      "arg_perigee_deg": 217.8815,
      "mean_anomaly_deg": 142.2143,
      "mean_motion_rev_day": 15.28399916
    },
    {
      "epoch": "2026-03-30T11:19:22.061568Z",
      "apogee_km": 483.32500375429663,
      "perigee_km": 477.7612424384415,
      "latitude_deg": -2.671301443889386e-05,
      "longitude_deg": 174.53754472670545,
      "height_km": 485.90482227111306,
      "semi_major_axis_km": 6858.680123096369,
      "eccentricity": 0.0004056,
      "inclination_deg": 97.4081,
      "raan_deg": 172.2425,
      "arg_perigee_deg": 215.7963,
      "mean_anomaly_deg": 144.3005,
      "mean_motion_rev_day": 15.2841728
    },
    {
      "epoch": "2026-03-30T19:10:44.711904Z",
      "apogee_km": 483.31050332076666,
      "perigee_km": 477.70698974584775,
      "latitude_deg": -7.220215150732758e-07,
      "longitude_deg": 56.69621890646062,
      "height_km": 485.9189208023408,
      "semi_major_axis_km": 6858.645746533307,
      "eccentricity": 0.0004085,
      "inclination_deg": 97.408,
      "raan_deg": 172.5682,
      "arg_perigee_deg": 214.648,
      "mean_anomaly_deg": 145.4494,
      "mean_motion_rev_day": 15.28428771
    },
    {
      "epoch": "2026-03-31T10:53:29.400000Z",
      "apogee_km": 483.29005316907205,
      "perigee_km": 477.61018283317117,
      "latitude_deg": 6.862951409901932e-05,
      "longitude_deg": -178.98407547886816,
      "height_km": 485.9508032133293,
      "semi_major_axis_km": 6858.587118001122,
      "eccentricity": 0.00041407,
      "inclination_deg": 97.4079,
      "raan_deg": 173.2194,
      "arg_perigee_deg": 212.4887,
      "mean_anomaly_deg": 147.6099,
      "mean_motion_rev_day": 15.28448369
    },
    {
      "epoch": "2026-04-01T04:10:29.696448Z",
      "apogee_km": 483.2599704067552,
      "perigee_km": 477.5138990542373,
      "latitude_deg": -1.3857231940041419e-05,
      "longitude_deg": -78.22880369225764,
      "height_km": 485.98338929264065,
      "semi_major_axis_km": 6858.523934730496,
      "eccentricity": 0.0004189,
      "inclination_deg": 97.4079,
      "raan_deg": 173.9357,
      "arg_perigee_deg": 209.8709,
      "mean_anomaly_deg": 150.2292,
      "mean_motion_rev_day": 15.2846949
    },
    {
      "epoch": "2026-04-02T05:18:50.370048Z",
      "apogee_km": 483.200147937192,
      "perigee_km": 477.35636663306923,
      "latitude_deg": 4.023795385104501e-05,
      "longitude_deg": -95.3054746791731,
      "height_km": 486.0189492433698,
      "semi_major_axis_km": 6858.41525728513,
      "eccentricity": 0.00042603,
      "inclination_deg": 97.4077,
      "raan_deg": 174.9776,
      "arg_perigee_deg": 205.5658,
      "mean_anomaly_deg": 154.5372,
      "mean_motion_rev_day": 15.2850582
    },
    {
      "epoch": "2026-04-02T22:35:48.153120Z",
      "apogee_km": 483.13462806473854,
      "perigee_km": 477.22029200698125,
      "latitude_deg": 9.45967932103887e-05,
      "longitude_deg": 5.460380007986873,
      "height_km": 486.0088068572515,
      "semi_major_axis_km": 6858.314460035859,
      "eccentricity": 0.00043118,
      "inclination_deg": 97.4074,
      "raan_deg": 175.694,
      "arg_perigee_deg": 202.7749,
      "mean_anomaly_deg": 157.3301,
      "mean_motion_rev_day": 15.28539517
    },
    {
      "epoch": "2026-04-03T19:01:16.613760Z",
      "apogee_km": 483.07788452943623,
      "perigee_km": 477.06597858003624,
      "latitude_deg": 1.0575036969949525e-05,
      "longitude_deg": 59.09959746979846,
      "height_km": 486.0018747192579,
      "semi_major_axis_km": 6858.208931554736,
      "eccentricity": 0.0004383,
      "inclination_deg": 97.4071,
      "raan_deg": 176.5406,
      "arg_perigee_deg": 199.9631,
      "mean_anomaly_deg": 160.1438,
      "mean_motion_rev_day": 15.28574797
    },
    {
      "epoch": "2026-04-04T18:35:14.868096Z",
      "apogee_km": 483.0026953921706,
      "perigee_km": 476.9031102326089,
      "latitude_deg": -4.538439951464219e-05,
      "longitude_deg": 65.61594885809656,
      "height_km": 485.9828351099779,
      "semi_major_axis_km": 6858.0899028123895,
      "eccentricity": 0.0004447,
      "inclination_deg": 97.4069,
      "raan_deg": 177.5175,
      "arg_perigee_deg": 196.4109,
      "mean_anomaly_deg": 163.6987,
      "mean_motion_rev_day": 15.28614592
    },
    {
      "epoch": "2026-04-05T11:52:08.334624Z",
      "apogee_km": 482.986393804269,
      "perigee_km": 476.7768694144652,
      "latitude_deg": 2.6356006312872405e-05,
      "longitude_deg": 166.39973453840923,
      "height_km": 486.00099687956066,
      "semi_major_axis_km": 6858.018631609367,
      "eccentricity": 0.00045272,
      "inclination_deg": 97.4067,
      "raan_deg": 178.2338,
      "arg_perigee_deg": 193.7984,
      "mean_anomaly_deg": 166.3133,
      "mean_motion_rev_day": 15.28638421
    },
    {
      "epoch": "2026-04-05T18:09:11.223360Z",
      "apogee_km": 482.96755613842834,
      "perigee_km": 476.7487261444403,
      "latitude_deg": -3.6627830247289266e-06,
      "longitude_deg": 72.14022126501575,
      "height_km": 485.99260078354155,
      "semi_major_axis_km": 6857.995141141434,
      "eccentricity": 0.0004534,
      "inclination_deg": 97.4065,
      "raan_deg": 178.4944,
      "arg_perigee_deg": 192.951,
      "mean_anomaly_deg": 167.1614,
      "mean_motion_rev_day": 15.28646275
    },
    {
      "epoch": "2026-04-06T05:09:01.004544Z",
      "apogee_km": 482.9564426862844,
      "perigee_km": 476.6881307390431,
      "latitude_deg": -5.5934996978409175e-05,
      "longitude_deg": -92.81293191842418,
      "height_km": 486.00049429159947,
      "semi_major_axis_km": 6857.959286712663,
      "eccentricity": 0.00045701,
      "inclination_deg": 97.4065,
      "raan_deg": 178.9503,
      "arg_perigee_deg": 191.2246,
      "mean_anomaly_deg": 168.8892,
      "mean_motion_rev_day": 15.28658263
    },
    {
      "epoch": "2026-04-07T04:42:55.157472Z",
      "apogee_km": 482.94431502525094,
      "perigee_km": 476.53617736885917,
      "latitude_deg": -4.261669960235101e-05,
      "longitude_deg": -86.2792552714461,
      "height_km": 486.01801675190563,
      "semi_major_axis_km": 6857.877246197055,
      "eccentricity": 0.00046721,
      "inclination_deg": 97.406,
      "raan_deg": 179.9274,
      "arg_perigee_deg": 187.8502,
      "mean_anomaly_deg": 172.2665,
      "mean_motion_rev_day": 15.28685694
    },
    {
      "epoch": "2026-04-07T17:16:59.547360Z",
      "apogee_km": 482.94481922637897,
      "perigee_km": 476.47786823824026,
      "latitude_deg": -3.8993971233268314e-05,
      "longitude_deg": 85.20730678378254,
      "height_km": 486.02894830186244,
      "semi_major_axis_km": 6857.848343732309,
      "eccentricity": 0.0004715,
      "inclination_deg": 97.4058,
      "raan_deg": 180.4484,
      "arg_perigee_deg": 186.2885,
      "mean_anomaly_deg": 173.8296,
      "mean_motion_rev_day": 15.28695358
    },
    {
      "epoch": "2026-04-08T12:08:05.373600Z",
      "apogee_km": 482.9348268909407,
      "perigee_km": 476.37987273961244,
      "latitude_deg": 1.6370338119502422e-05,
      "longitude_deg": 162.4405127879352,
      "height_km": 486.0322403062046,
      "semi_major_axis_km": 6857.794349815276,
      "eccentricity": 0.00047792,
      "inclination_deg": 97.4058,
      "raan_deg": 181.2301,
      "arg_perigee_deg": 183.4305,
      "mean_anomaly_deg": 176.6903,
      "mean_motion_rev_day": 15.28713412
    },
    {
      "epoch": "2026-04-09T11:41:56.523264Z",
      "apogee_km": 482.9295262363021,
      "perigee_km": 476.2505115835047,
      "latitude_deg": -8.414428666194054e-05,
      "longitude_deg": 168.98665159104104,
      "height_km": 486.03245273781494,
      "semi_major_axis_km": 6857.727018909903,
      "eccentricity": 0.00048697,
      "inclination_deg": 97.4057,
      "raan_deg": 182.2071,
      "arg_perigee_deg": 179.9799,
      "mean_anomaly_deg": 180.1441,
      "mean_motion_rev_day": 15.28735926
    },
    {
      "epoch": "2026-04-10T04:58:45.265440Z",
      "apogee_km": 482.92173212381203,
      "perigee_km": 476.15375576551924,
      "latitude_deg": -5.0777085993771e-06,
      "longitude_deg": -90.20952586478876,
      "height_km": 486.02121441430126,
      "semi_major_axis_km": 6857.674743944665,
      "eccentricity": 0.00049346,
      "inclination_deg": 97.4059,
      "raan_deg": 182.9237,
      "arg_perigee_deg": 177.5295,
      "mean_anomaly_deg": 182.597,
      "mean_motion_rev_day": 15.28753406
    }
  ]
}